DMSP 5D-3 F16 (USA 172) 
1 28054U 03048A   26178.21145928  .00000024  00000+0  36332-4 0  9996
2 28054  98.9887 202.1060 0008103 115.1793 317.5043 14.14483750170907
METEOSAT-9 (MSG-2)      
1 28912U 05049B   26177.81720226  .00000126  00000+0  00000+0 0  9998
2 28912   9.3827  54.0739 0001988 356.9985 203.7944  1.00277622  7094
DMSP 5D-3 F17 (USA 191) 
1 29522U 06050A   26178.21069639  .00000057  00000+0  51819-4 0  9990
2 29522  98.7378 184.5757 0010769  33.1859 326.9988 14.14994166 13849
FENGYUN 3A              
1 32958U 08026A   26178.12647291  .00000063  00000+0  50566-4 0  9993
2 32958  98.6885 118.7739 0009871  98.0765 262.1531 14.19573165936818
GOES 14                 
1 35491U 09033A   26178.01934706 -.00000314  00000+0  00000+0 0  9998
2 35491   1.7153  82.9344 0002251  19.2331 316.0256  1.00108179  6680
DMSP 5D-3 F18 (USA 210) 
1 35951U 09057A   26178.18272896  .00000233  00000+0  14355-3 0  9999
2 35951  98.9041 158.9303 0010209 218.1903 141.8548 14.14902243861007
EWS-G2 (GOES 15)        
1 36411U 10008A   26178.10593733  .00000031  00000+0  00000+0 0  9991
2 36411   1.3045  82.7132 0005346  43.3637 250.8305  1.00268050 59736
COMS 1                  
1 36744U 10032A   26177.95757810  .00000041  00000+0  00000+0 0  9998
2 36744   4.8297  75.2434 0011918  12.9181 206.1281  0.99166709 51185
FENGYUN 3B              
1 37214U 10059A   26178.20935497  .00000176  00000+0  11444-3 0  9995
2 37214  98.9620 224.2663 0022492 155.7581 290.6820 14.14843393808844
SUOMI NPP               
1 37849U 11061A   26178.20858605  .00000049  00000+0  44305-4 0  9990
2 37849  98.7954 119.0162 0000958 337.1617  22.9516 14.19519329759869
METEOSAT-10 (MSG-3)     
1 38552U 12035B   26178.02213338  .00000001  00000+0  00000+0 0  9999
2 38552   4.6945  60.9773 0001757   9.1573 213.1506  1.00268678 50955
METOP-B                 
1 38771U 12049A   26178.18514873  .00000103  00000+0  67087-4 0  9998
2 38771  98.6500 229.4847 0001611 349.7189  10.3955 14.21441926714685
INSAT-3D                
1 39216U 13038B   26178.02892112 -.00000329  00000+0  00000+0 0  9998
2 39216   1.9512  82.4280 0001148   2.7760 329.8733  1.00271756 47174
FENGYUN 3C              
1 39260U 13052A   26178.22078868  .00000061  00000+0  52348-4 0  9998
2 39260  98.4983 151.6351 0014651 359.4879   0.6278 14.15757210659980
METEOR-M 2              
1 40069U 14037A   26178.21136836  .00000316  00000+0  16394-3 0  9993
2 40069  98.5111 153.5947 0006268  19.1342 341.0070 14.21464558620746
HIMAWARI-8              
1 40267U 14060A   26177.90733954 -.00000264  00000+0  00000+0 0  9994
2 40267   0.0121 315.2307 0001136 135.4222 291.6652  1.00274633 42852
FENGYUN 2G              
1 40367U 14090A   26177.68534693 -.00000296  00000+0  00000+0 0  9997
2 40367   5.6634  72.7057 0003579 150.4754  37.9966  1.00269056 42098
METEOSAT-11 (MSG-4)     
1 40732U 15034A   26178.16653582  .00000070  00000+0  00000+0 0  9994
2 40732   3.2255  71.0480 0002243 347.4242 286.1812  1.00266192  7318
ELEKTRO-L 2             
1 41105U 15074A   26176.94987031 -.00000113  00000+0  00000+0 0  9995
2 41105   6.7170  70.4166 0000727 286.6211 244.4527  1.00271163 38594
SENTINEL-3A             
1 41335U 16011A   26178.17501081  .00000098  00000+0  58521-4 0  9993
2 41335  98.6246 245.4151 0001436  96.7964 263.3380 14.26735229539485
INSAT-3DR               
1 41752U 16054A   26178.10801734 -.00000065  00000+0  00000+0 0  9993
2 41752   0.1309  86.1866 0010053 186.7850 115.1092  1.00272424 35912
HIMAWARI-9              
1 41836U 16064A   26177.97863821 -.00000263  00000+0  00000+0 0  9996
2 41836   0.0171  44.9539 0001158  68.4076 294.8031  1.00271011 35304
GOES 16                 
1 41866U 16071A   26178.14397384 -.00000080  00000+0  00000+0 0  9990
2 41866   0.3658  85.5266 0000590   9.3112 127.5560  1.00272083 35200
FENGYUN 4A              
1 41882U 16077A   26177.54757616 -.00000348  00000+0  00000+0 0  9992
2 41882   2.3469  80.1884 0008229 152.1316   3.0696  1.00264621 35024
CYGFM05                 
1 41884U 16078A   26177.47730451  .00020719  00000+0  27679-3 0  9993
2 41884  34.9552 199.0543 0008074 235.8683 124.1276 15.57045201530203
CYGFM04                 
1 41885U 16078B   26178.18569051  .00031940  00000+0  35176-3 0  9998
2 41885  34.9305 161.5412 0007247 277.8232  82.1671 15.62045393530565
CYGFM02                 
1 41886U 16078C   26178.23075145  .00037538  00000+0  36546-3 0  9992
2 41886  34.9386 155.4782 0008208 280.5423  79.4379 15.65132330530743
CYGFM01                 
1 41887U 16078D   26177.39784161  .00023434  00000+0  30491-3 0  9997
2 41887  34.9382 200.5628 0007851 229.8106 130.1932 15.57732603530142
CYGFM08                 
1 41888U 16078E   26178.17305218  .00028947  00000+0  33832-3 0  9993
2 41888  34.9410 174.7324 0009153 264.3406  95.6276 15.60506659530537
CYGFM07                 
1 41890U 16078G   26177.68379649  .00027265  00000+0  31807-3 0  9992
2 41890  34.9428 166.3245 0007692 273.4338  86.5507 15.60577907530483
CYGFM03                 
1 41891U 16078H   26178.16660216  .00028250  00000+0  32927-3 0  9999
2 41891  34.9381 165.0423 0007338 266.5166  93.4720 15.60599800530531
